LANDSAT 9               
1 49260U 21088A   23270.75489834  .00000810  00000+0  18978-3 0  9996
2 49260  98.2209 339.3762 0001401  90.8575 269.2784 14.57129618106320
